{
    "links": {
        "self": "http://www.neowsapp.com/rest/v1/neo/3666972?api_key=iIulBulltgU6a56xZRHN4H3l9WmuAYTsLGpBGhQ2"
    },
    "id": "3666972",
    "neo_reference_id": "3666972",
    "name": "(2014 GR1)",
    "designation": "2014 GR1",
    "nasa_jpl_url": "http://ssd.jpl.nasa.gov/sbdb.cgi?sstr=3666972",
    "absolute_magnitude_h": 24.0,
    "estimated_diameter": {
        "kilometers": {
            "estimated_diameter_min": 0.0421264611,
            "estimated_diameter_max": 0.0941976306
        },
        "meters": {
            "estimated_diameter_min": 42.1264610556,
            "estimated_diameter_max": 94.1976305719
        },
        "miles": {
            "estimated_diameter_min": 0.0261761612,
            "estimated_diameter_max": 0.0585316759
        },
        "feet": {
            "estimated_diameter_min": 138.2101784897,
            "estimated_diameter_max": 309.0473542854
        }
    },
    "is_potentially_hazardous_asteroid": false,
    "close_approach_data": [
        {
            "close_approach_date": "2014-04-12",
            "close_approach_date_full": "2014-Apr-12 01:43",
            "epoch_date_close_approach": 1397266980000,
            "relative_velocity": {
                "kilometers_per_second": "8.0890640474",
                "kilometers_per_hour": "29120.6305705292",
                "miles_per_hour": "18094.4273675602"
            },
            "miss_distance": {
                "astronomical": "0.0649695678",
                "lunar": "25.2731618742",
                "kilometers": "9719308.957700586",
                "miles": "6039298.5403206468"
            },
            "orbiting_body": "Earth"
        },
        {
            "close_approach_date": "2014-09-18",
            "close_approach_date_full": "2014-Sep-18 11:57",
            "epoch_date_close_approach": 1411041420000,
            "relative_velocity": {
                "kilometers_per_second": "5.5707680527",
                "kilometers_per_hour": "20054.7649898002",
                "miles_per_hour": "12461.2510571344"
            },
            "miss_distance": {
                "astronomical": "0.3669017899",
                "lunar": "142.7247962711",
                "kilometers": "54887726.268227513",
                "miles": "34105651.6029971594"
            },
            "orbiting_body": "Earth"
        },
        {
            "close_approach_date": "2017-03-24",
            "close_approach_date_full": "2017-Mar-24 03:45",
            "epoch_date_close_approach": 1490327100000,
            "relative_velocity": {
                "kilometers_per_second": "17.9793830255",
                "kilometers_per_hour": "64725.7788918331",
                "miles_per_hour": "40218.0818897615"
            },
            "miss_distance": {
                "astronomical": "0.3657317789",
                "lunar": "142.2696619921",
                "kilometers": "54712695.114750943",
                "miles": "33996892.2874632934"
            },
            "orbiting_body": "Earth"
        },
        {
            "close_approach_date": "2148-08-27",
            "close_approach_date_full": "2148-Aug-27 21:44",
            "epoch_date_close_approach": 5637851040000,
            "relative_velocity": {
                "kilometers_per_second": "15.5144832862",
                "kilometers_per_hour": "55852.1398302005",
                "miles_per_hour": "34704.3476628265"
            },
            "miss_distance": {
                "astronomical": "0.2834972629",
                "lunar": "110.2804352681",
                "kilometers": "42410586.680670023",
                "miles": "26352716.5716633974"
            },
            "orbiting_body": "Earth"
        }
    ],
    "orbital_data": {
        "orbit_id": "4",
        "orbit_determination_date": "2017-04-06 08:41:45",
        "first_observation_date": "2014-04-03",
        "last_observation_date": "2014-04-05",
        "data_arc_in_days": 2,
        "observations_used": 18,
        "orbit_uncertainty": "8",
        "minimum_orbit_intersection": ".0586177",
        "jupiter_tisserand_invariant": "4.969",
        "epoch_osculation": "2456751.5",
        "eccentricity": ".2841456155027375",
        "semi_major_axis": "1.295220756957646",
        "inclination": "5.810916175496689",
        "ascending_node_longitude": "168.5773439039671",
        "orbital_period": "538.4112433549457",
        "perihelion_distance": ".9271894577599943",
        "perihelion_argument": "89.99257849068081",
        "aphelion_distance": "1.663252056155298",
        "perihelion_time": "2456807.216415576879",
        "mean_anomaly": "322.7461167365457",
        "mean_motion": ".6686338824515804",
        "equinox": "J2000",
        "orbit_class": {
            "orbit_class_type": "APO",
            "orbit_class_description": "Near-Earth asteroid orbits which cross the Earth’s orbit similar to that of 1862 Apollo",
            "orbit_class_range": "a (semi-major axis) > 1.0 AU; q (perihelion) < 1.017 AU"
        }
    },
    "is_sentry_object": false
}